{
  "type": "FeatureCollection",
  "features": [
    {
      "type": "Feature",
      "properties": {
        "norad_id": 34637,
        "name": "COSMOS 2251 DEB",
        "group": "cosmos-2251-debris",
        "lat": 62.36308798008148,
        "lon": 120.1223349704844,
        "alt_km": 685.1124684734114,
        "timestamp": "2025-12-20T03:42:47.789099+00:00",
        "meta_object_name": "COSMOS 2251 DEB",
        "meta_object_id": "1993-036XJ",
        "meta_epoch": "2025-12-19T06:10:11.394912",
        "meta_mean_motion": 14.60150921,
        "meta_eccentricity": 0.0049253,
        "meta_inclination": 74.0498,
        "meta_ra_of_asc_node": 88.7269,
        "meta_arg_of_pericenter": 157.5379,
        "meta_mean_anomaly": 233.6347,
        "meta_ephemeris_type": 0,
        "meta_classification_type": "U",
        "meta_norad_cat_id": 34637,
        "meta_element_set_no": 999,
        "meta_rev_at_epoch": 88622,
        "meta_bstar": 0.0005869,
        "meta_mean_motion_dot": 2.845e-05,
        "meta_mean_motion_ddot": 0,
        "tle_line1": "1 34637U 93036XJ  25353.25707633  .00002845  00000+0  58690-3 0  9994",
        "tle_line2": "2 34637  74.0498  88.7269 0049253 157.5379 233.6347 14.60150921886220"
      },
      "geometry": {
        "type": "Point",
        "coordinates": [
          120.1223349704844,
          62.36308798008148
        ]
      }
    },
    {
      "type": "Feature",
      "properties": {
        "norad_id": 34641,
        "name": "COSMOS 2251 DEB",
        "group": "cosmos-2251-debris",
        "lat": -21.83901439973755,
        "lon": -105.81662523425292,
        "alt_km": 733.8283524763056,
        "timestamp": "2025-12-20T03:42:47.789109+00:00",
        "meta_object_name": "COSMOS 2251 DEB",
        "meta_object_id": "1993-036XN",
        "meta_epoch": "2025-12-19T11:59:01.877856",
        "meta_mean_motion": 14.52049341,
        "meta_eccentricity": 0.0018811,
        "meta_inclination": 73.8398,
        "meta_ra_of_asc_node": 68.7592,
        "meta_arg_of_pericenter": 341.9926,
        "meta_mean_anomaly": 36.2191,
        "meta_ephemeris_type": 0,
        "meta_classification_type": "U",
        "meta_norad_cat_id": 34641,
        "meta_element_set_no": 999,
        "meta_rev_at_epoch": 88354,
        "meta_bstar": 0.00059825,
        "meta_mean_motion_dot": 2.396e-05,
        "meta_mean_motion_ddot": 0,
        "tle_line1": "1 34641U 93036XN  25353.49932729  .00002396  00000+0  59825-3 0  9993",
        "tle_line2": "2 34641  73.8398  68.7592 0018811 341.9926  36.2191 14.52049341883541"
      },
      "geometry": {
        "type": "Point",
        "coordinates": [
          -105.81662523425292,
          -21.83901439973755
        ]
      }
    },
    {
      "type": "Feature",
      "properties": {
        "norad_id": 34642,
        "name": "COSMOS 2251 DEB",
        "group": "cosmos-2251-debris",
        "lat": -45.14079506017914,
        "lon": -49.79633570749465,
        "alt_km": 1050.3237297905644,
        "timestamp": "2025-12-20T03:42:47.789120+00:00",
        "meta_object_name": "COSMOS 2251 DEB",
        "meta_object_id": "1993-036XP",
        "meta_epoch": "2025-12-19T16:47:36.276288",
        "meta_mean_motion": 13.98991151,
        "meta_eccentricity": 0.0206686,
        "meta_inclination": 74.0042,
        "meta_ra_of_asc_node": 327.7452,
        "meta_arg_of_pericenter": 145.9553,
        "meta_mean_anomaly": 35.4618,
        "meta_ephemeris_type": 0,
        "meta_classification_type": "U",
        "meta_norad_cat_id": 34642,
        "meta_element_set_no": 999,
        "meta_rev_at_epoch": 85390,
        "meta_bstar": 0.00059559,
        "meta_mean_motion_dot": 1.011e-05,
        "meta_mean_motion_ddot": 0,
        "tle_line1": "1 34642U 93036XP  25353.69972542  .00001011  00000+0  59559-3 0  9990",
        "tle_line2": "2 34642  74.0042 327.7452 0206686 145.9553  35.4618 13.98991151853907"
      },
      "geometry": {
        "type": "Point",
        "coordinates": [
          -49.79633570749465,
          -45.14079506017914
        ]
      }
    },
    {
      "type": "Feature",
      "properties": {
        "norad_id": 34671,
        "name": "COSMOS 2251 DEB",
        "group": "cosmos-2251-debris",
        "lat": -13.630220637851297,
        "lon": 115.99774911536709,
        "alt_km": 681.0798314347958,
        "timestamp": "2025-12-20T03:42:47.789130+00:00",
        "meta_object_name": "COSMOS 2251 DEB",
        "meta_object_id": "1993-036XR",
        "meta_epoch": "2025-12-19T14:45:15.981120",
        "meta_mean_motion": 14.67045101,
        "meta_eccentricity": 0.0010962,
        "meta_inclination": 74.0268,
        "meta_ra_of_asc_node": 121.0225,
        "meta_arg_of_pericenter": 201.8745,
        "meta_mean_anomaly": 173.474,
        "meta_ephemeris_type": 0,
        "meta_classification_type": "U",
        "meta_norad_cat_id": 34671,
        "meta_element_set_no": 999,
        "meta_rev_at_epoch": 88398,
        "meta_bstar": 0.0010446,
        "meta_mean_motion_dot": 5.839e-05,
        "meta_mean_motion_ddot": 0,
        "tle_line1": "1 34671U 93036XR  25353.61476830  .00005839  00000+0  10446-2 0  9996",
        "tle_line2": "2 34671  74.0268 121.0225 0010962 201.8745 173.4740 14.67045101883989"
      },
      "geometry": {
        "type": "Point",
        "coordinates": [
          115.99774911536709,
          -13.630220637851297
        ]
      }
    },
    {
      "type": "Feature",
      "properties": {
        "norad_id": 34672,
        "name": "COSMOS 2251 DEB",
        "group": "cosmos-2251-debris",
        "lat": 64.4009272828665,
        "lon": -31.338038175730546,
        "alt_km": 757.0308422781018,
        "timestamp": "2025-12-20T03:42:47.789140+00:00",
        "meta_object_name": "COSMOS 2251 DEB",
        "meta_object_id": "1993-036XS",
        "meta_epoch": "2025-12-18T13:28:46.255872",
        "meta_mean_motion": 14.36417673,
        "meta_eccentricity": 0.00241418,
        "meta_inclination": 74.0338,
        "meta_ra_of_asc_node": 294.8922,
        "meta_arg_of_pericenter": 5.7391,
        "meta_mean_anomaly": 109.133,
        "meta_ephemeris_type": 0,
        "meta_classification_type": "U",
        "meta_norad_cat_id": 34672,
        "meta_element_set_no": 999,
        "meta_rev_at_epoch": 65261,
        "meta_bstar": 0.00020838077,
        "meta_mean_motion_dot": 5.86e-06,
        "meta_mean_motion_ddot": 0,
        "tle_line1": "1 34672U 93036XS  25352.56164648  .00000586  00000+0  20838-3 0  9992",
        "tle_line2": "2 34672  74.0338 294.8922 0024141   5.7391 109.1330 14.36417673652611"
      },
      "geometry": {
        "type": "Point",
        "coordinates": [
          -31.338038175730546,
          64.4009272828665
        ]
      }
    },
    {
      "type": "Feature",
      "properties": {
        "norad_id": 34678,
        "name": "COSMOS 2251 DEB",
        "group": "cosmos-2251-debris",
        "lat": 72.71428749940686,
        "lon": 59.10283194707452,
        "alt_km": 771.5220213722232,
        "timestamp": "2025-12-20T03:42:47.789151+00:00",
        "meta_object_name": "COSMOS 2251 DEB",
        "meta_object_id": "1993-036XY",
        "meta_epoch": "2025-12-18T11:45:31.328352",
        "meta_mean_motion": 14.30066037,
        "meta_eccentricity": 0.00245747,
        "meta_inclination": 74.0376,
        "meta_ra_of_asc_node": 355.2383,
        "meta_arg_of_pericenter": 42.5322,
        "meta_mean_anomaly": 113.3622,
        "meta_ephemeris_type": 0,
        "meta_classification_type": "U",
        "meta_norad_cat_id": 34678,
        "meta_element_set_no": 999,
        "meta_rev_at_epoch": 87461,
        "meta_bstar": 2.9350181e-05,
        "meta_mean_motion_dot": 5e-07,
        "meta_mean_motion_ddot": 0,
        "tle_line1": "1 34678U 93036XY  25352.48994593  .00000050  00000+0  29350-4 0  9994",
        "tle_line2": "2 34678  74.0376 355.2383 0024574  42.5322 113.3622 14.30066037874610"
      },
      "geometry": {
        "type": "Point",
        "coordinates": [
          59.10283194707452,
          72.71428749940686
        ]
      }
    },
    {
      "type": "Feature",
      "properties": {
        "norad_id": 34680,
        "name": "COSMOS 2251 DEB",
        "group": "cosmos-2251-debris",
        "lat": 70.64249971383207,
        "lon": -118.83038604750071,
        "alt_km": 685.6155756867929,
        "timestamp": "2025-12-20T03:42:47.789161+00:00",
        "meta_object_name": "COSMOS 2251 DEB",
        "meta_object_id": "1993-036YA",
        "meta_epoch": "2025-12-18T08:39:27.142848",
        "meta_mean_motion": 14.60682322,
        "meta_eccentricity": 0.00065553,
        "meta_inclination": 74.0428,
        "meta_ra_of_asc_node": 119.1245,
        "meta_arg_of_pericenter": 218.9141,
        "meta_mean_anomaly": 172.4418,
        "meta_ephemeris_type": 0,
        "meta_classification_type": "U",
        "meta_norad_cat_id": 34680,
        "meta_element_set_no": 999,
        "meta_rev_at_epoch": 88410,
        "meta_bstar": 0.00092042138,
        "meta_mean_motion_dot": 4.458e-05,
        "meta_mean_motion_ddot": 0,
        "tle_line1": "1 34680U 93036YA  25352.36073082  .00004458  00000+0  92042-3 0  9998",
        "tle_line2": "2 34680  74.0428 119.1245 0006555 218.9141 172.4418 14.60682322884100"
      },
      "geometry": {
        "type": "Point",
        "coordinates": [
          -118.83038604750071,
          70.64249971383207
        ]
      }
    }
  ]
}